{
  "type": "FeatureCollection",
  "features": [
    {
      "type": "Feature",
      "properties": {
        "norad_id": 41330,
        "name": "COSMOS 2514 (751)",
        "group": "gnss",
        "lat": -63.913795961964425,
        "lon": -112.24812579065413,
        "alt_km": 19120.722593980085,
        "timestamp": "2025-12-24T14:43:29.245102+00:00",
        "meta_object_name": "COSMOS 2514 (751)",
        "meta_object_id": "2016-008A",
        "meta_epoch": "2025-12-23T18:45:46.770912",
        "meta_mean_motion": 2.13102642,
        "meta_eccentricity": 0.00116336,
        "meta_inclination": 65.1274,
        "meta_ra_of_asc_node": 319.026,
        "meta_arg_of_pericenter": 220.0869,
        "meta_mean_anomaly": 139.8272,
        "meta_ephemeris_type": 0,
        "meta_classification_type": "U",
        "meta_norad_cat_id": 41330,
        "meta_element_set_no": 999,
        "meta_rev_at_epoch": 7688,
        "meta_bstar": 0,
        "meta_mean_motion_dot": -3.5e-07,
        "meta_mean_motion_ddot": 0,
        "tle_line1": "1 41330U 16008A   25357.78179133 -.00000035  00000+0  00000+0 0  9994",
        "tle_line2": "2 41330  65.1274 319.0260 0011633 220.0869 139.8272  2.13102642 76882"
      },
      "geometry": {
        "type": "Point",
        "coordinates": [
          -112.24812579065413,
          -63.913795961964425
        ]
      }
    },
    {
      "type": "Feature",
      "properties": {
        "norad_id": 41384,
        "name": "IRNSS-1F",
        "group": "gnss",
        "lat": -4.498736029048662,
        "lon": -13.066357383171495,
        "alt_km": 35742.46297674726,
        "timestamp": "2025-12-24T14:43:29.245115+00:00",
        "meta_object_name": "IRNSS-1F",
        "meta_object_id": "2016-015A",
        "meta_epoch": "2025-12-23T23:33:29.527200",
        "meta_mean_motion": 1.00278072,
        "meta_eccentricity": 0.00226621,
        "meta_inclination": 4.9093,
        "meta_ra_of_asc_node": 101.0199,
        "meta_arg_of_pericenter": 182.1246,
        "meta_mean_anomaly": 195.4962,
        "meta_ephemeris_type": 0,
        "meta_classification_type": "U",
        "meta_norad_cat_id": 41384,
        "meta_element_set_no": 999,
        "meta_rev_at_epoch": 3591,
        "meta_bstar": 0,
        "meta_mean_motion_dot": 1.77e-06,
        "meta_mean_motion_ddot": 0,
        "tle_line1": "1 41384U 16015A   25357.98159175  .00000177  00000+0  00000+0 0  9993",
        "tle_line2": "2 41384   4.9093 101.0199 0022662 182.1246 195.4962  1.00278072 35911"
      },
      "geometry": {
        "type": "Point",
        "coordinates": [
          -13.066357383171495,
          -4.498736029048662
        ]
      }
    },
    {
      "type": "Feature",
      "properties": {
        "norad_id": 41434,
        "name": "BEIDOU-2 IGSO-6 (C13)",
        "group": "gnss",
        "lat": 7.341817915219562,
        "lon": 44.0820578076535,
        "alt_km": 35971.91802733283,
        "timestamp": "2025-12-24T14:43:29.245126+00:00",
        "meta_object_name": "BEIDOU-2 IGSO-6 (C13)",
        "meta_object_id": "2016-021A",
        "meta_epoch": "2025-12-18T14:33:38.837664",
        "meta_mean_motion": 1.00292299,
        "meta_eccentricity": 0.00610054,
        "meta_inclination": 59.9732,
        "meta_ra_of_asc_node": 39.8392,
        "meta_arg_of_pericenter": 230.2031,
        "meta_mean_anomaly": 129.1398,
        "meta_ephemeris_type": 0,
        "meta_classification_type": "U",
        "meta_norad_cat_id": 41434,
        "meta_element_set_no": 999,
        "meta_rev_at_epoch": 3566,
        "meta_bstar": 0,
        "meta_mean_motion_dot": -1.41e-06,
        "meta_mean_motion_ddot": 0,
        "tle_line1": "1 41434U 16021A   25352.60669951 -.00000141  00000+0  00000+0 0  9990",
        "tle_line2": "2 41434  59.9732  39.8392 0061005 230.2031 129.1398  1.00292299 35667"
      },
      "geometry": {
        "type": "Point",
        "coordinates": [
          44.0820578076535,
          7.341817915219562
        ]
      }
    },
    {
      "type": "Feature",
      "properties": {
        "norad_id": 41469,
        "name": "IRNSS-1G",
        "group": "gnss",
        "lat": -1.4481888839385493,
        "lon": 83.87818807389631,
        "alt_km": 35774.71026617083,
        "timestamp": "2025-12-24T14:43:29.245141+00:00",
        "meta_object_name": "IRNSS-1G",
        "meta_object_id": "2016-027A",
        "meta_epoch": "2025-12-23T22:21:51.634368",
        "meta_mean_motion": 1.0027454,
        "meta_eccentricity": 0.00026586,
        "meta_inclination": 4.762,
        "meta_ra_of_asc_node": 101.8112,
        "meta_arg_of_pericenter": 327.5849,
        "meta_mean_anomaly": 128.3342,
        "meta_ephemeris_type": 0,
        "meta_classification_type": "U",
        "meta_norad_cat_id": 41469,
        "meta_element_set_no": 999,
        "meta_rev_at_epoch": 3542,
        "meta_bstar": 0,
        "meta_mean_motion_dot": -3.15e-06,
        "meta_mean_motion_ddot": 0,
        "tle_line1": "1 41469U 16027A   25357.93184762 -.00000315  00000+0  00000+0 0  9990",
        "tle_line2": "2 41469   4.7620 101.8112 0002658 327.5849 128.3342  1.00274540 35428"
      },
      "geometry": {
        "type": "Point",
        "coordinates": [
          83.87818807389631,
          -1.4481888839385493
        ]
      }
    },
    {
      "type": "Feature",
      "properties": {
        "norad_id": 41549,
        "name": "GSAT0211 (GALILEO 14)",
        "group": "gnss",
        "lat": 16.228349760631037,
        "lon": -121.78957003112502,
        "alt_km": 23208.273620947624,
        "timestamp": "2025-12-24T14:43:29.245152+00:00",
        "meta_object_name": "GSAT0211 (GALILEO 14)",
        "meta_object_id": "2016-030A",
        "meta_epoch": "2025-12-22T05:38:05.943264",
        "meta_mean_motion": 1.70473275,
        "meta_eccentricity": 0.00040882,
        "meta_inclination": 55.1491,
        "meta_ra_of_asc_node": 226.562,
        "meta_arg_of_pericenter": 17.521,
        "meta_mean_anomaly": 342.5988,
        "meta_ephemeris_type": 0,
        "meta_classification_type": "U",
        "meta_norad_cat_id": 41549,
        "meta_element_set_no": 999,
        "meta_rev_at_epoch": 5965,
        "meta_bstar": 0,
        "meta_mean_motion_dot": 7.3e-07,
        "meta_mean_motion_ddot": 0,
        "tle_line1": "1 41549U 16030A   25356.23479101  .00000073  00000+0  00000+0 0  9999",
        "tle_line2": "2 41549  55.1491 226.5620 0004088  17.5210 342.5988  1.70473275 59659"
      },
      "geometry": {
        "type": "Point",
        "coordinates": [
          -121.78957003112502,
          16.228349760631037
        ]
      }
    },
    {
      "type": "Feature",
      "properties": {
        "norad_id": 41550,
        "name": "GSAT0210 (GALILEO 13)",
        "group": "gnss",
        "lat": -33.27790527465711,
        "lon": 73.71784221979622,
        "alt_km": 23225.174848170762,
        "timestamp": "2025-12-24T14:43:29.245166+00:00",
        "meta_object_name": "GSAT0210 (GALILEO 13)",
        "meta_object_id": "2016-030B",
        "meta_epoch": "2025-12-23T01:53:26.064096",
        "meta_mean_motion": 1.704734,
        "meta_eccentricity": 5.527e-05,
        "meta_inclination": 55.1484,
        "meta_ra_of_asc_node": 226.5368,
        "meta_arg_of_pericenter": 180.205,
        "meta_mean_anomaly": 179.8969,
        "meta_ephemeris_type": 0,
        "meta_classification_type": "U",
        "meta_norad_cat_id": 41550,
        "meta_element_set_no": 999,
        "meta_rev_at_epoch": 5966,
        "meta_bstar": 0,
        "meta_mean_motion_dot": 7.3e-07,
        "meta_mean_motion_ddot": 0,
        "tle_line1": "1 41550U 16030B   25357.07877389  .00000073  00000+0  00000+0 0  9994",
        "tle_line2": "2 41550  55.1484 226.5368 0000552 180.2050 179.8969  1.70473400 59665"
      },
      "geometry": {
        "type": "Point",
        "coordinates": [
          73.71784221979622,
          -33.27790527465711
        ]
      }
    },
    {
      "type": "Feature",
      "properties": {
        "norad_id": 41586,
        "name": "BEIDOU-2 G7 (C03)",
        "group": "gnss",
        "lat": -0.08357436278033392,
        "lon": 64.68205776956994,
        "alt_km": 35764.856408070846,
        "timestamp": "2025-12-24T14:43:29.245179+00:00",
        "meta_object_name": "BEIDOU-2 G7 (C03)",
        "meta_object_id": "2016-037A",
        "meta_epoch": "2025-12-24T06:46:33.984192",
        "meta_mean_motion": 1.00269256,
        "meta_eccentricity": 0.000522,
        "meta_inclination": 1.7834,
        "meta_ra_of_asc_node": 67.8882,
        "meta_arg_of_pericenter": 1.209,
        "meta_mean_anomaly": 236.0405,
        "meta_ephemeris_type": 0,
        "meta_classification_type": "U",
        "meta_norad_cat_id": 41586,
        "meta_element_set_no": 999,
        "meta_rev_at_epoch": 513,
        "meta_bstar": 0,
        "meta_mean_motion_dot": -3.33e-06,
        "meta_mean_motion_ddot": 0,
        "tle_line1": "1 41586U 16037A   25358.28233778 -.00000333  00000+0  00000+0 0  9992",
        "tle_line2": "2 41586   1.7834  67.8882 0005220   1.2090 236.0405  1.00269256  5139"
      },
      "geometry": {
        "type": "Point",
        "coordinates": [
          64.68205776956994,
          -0.08357436278033392
        ]
      }
    }
  ]
}